USA 568                 
1 66551U 24134K   25336.66670139 -.01709685  00000+0 -74303-2 0  9990
2 66551  53.1571 236.7807 0000717 110.7411 313.9012 15.87051116  2624
GLOBAL-33               
1 66554U 25267A   25345.62028417  .00018974  00000+0  61478-3 0  9994
2 66554  42.0212  63.4559 0004371  46.3547 313.7652 15.31613043  3237
ELECTRON KICK STAGE R/B 
1 66555U 25267B   25345.60931615  .00036872  00000+0  11433-2 0  9998
2 66555  42.0196  63.3722 0006597  43.8355 316.3006 15.32723055  3239
STARLINK-35699          
1 66557U 25268A   25346.16668980 -.00019342  00000+0 -32530-3 0  9992
2 66557  43.0002 124.5489 0001615 265.0873 231.0433 15.50525112  4576
STARLINK-35695          
1 66558U 25268B   25346.16668980 -.00107183  00000+0 -18423-2 0  9998
2 66558  43.0003 124.5456 0003463 266.7143 231.1861 15.50631551  4574
STARLINK-35419          
1 66559U 25268C   25346.16668980  .00105075  00000+0  17818-2 0  9992
2 66559  43.0002 124.5409 0002732 246.0356 253.8495 15.50437102  4577
STARLINK-35411          
1 66560U 25268D   25346.16668980  .00006725  00000+0  12033-3 0  9991
2 66560  43.0002 124.5367 0002092 269.9251 231.7379 15.50585828  4574
STARLINK-35305          
1 66561U 25268E   25346.16668980  .00096625  00000+0  16373-2 0  9990
2 66561  43.0001 124.5267 0001505 266.4236 239.1889 15.50498322  4521
STARLINK-35579          
1 66562U 25268F   25346.16668980  .00018851  00000+0  32676-3 0  9991
2 66562  43.0002 124.5308 0001620 269.8375 233.8386 15.50544822  4573
STARLINK-35437          
1 66563U 25268G   25346.16668980  .00068121  00000+0  11594-2 0  9992
2 66563  43.0002 124.5210 0001655 268.8268 238.6916 15.50517838  4573
STARLINK-35358          
1 66564U 25268H   25346.16668980 -.00031939  00000+0 -54078-3 0  9997
2 66564  43.0001 124.5171 0001518 267.2614 242.1619 15.50580998  4527
STARLINK-35893          
1 66565U 25268J   25346.16668980  .00016854  00000+0  29279-3 0  9990
2 66565  43.0002 124.5118 0001624 267.2937 244.0560 15.50549543  4578
