CCSDS_OMM_VERS = 2.0
CREATION_DATE  = 
ORIGINATOR     = 

OBJECT_NAME    = USA 568
OBJECT_ID      = 2024-134K
CENTER_NAME    = EARTH
REF_FRAME      = TEME
TIME_SYSTEM    = UTC
MEAN_ELEMENT_THEORY = SGP/SGP4

EPOCH          = 2025-12-02T16:00:03.000096
MEAN_MOTION    = 15.87051116
ECCENTRICITY   = .0000717
INCLINATION    = 53.1571
RA_OF_ASC_NODE = 236.7807
ARG_OF_PERICENTER = 110.7411
MEAN_ANOMALY   = 313.9012

EPHEMERIS_TYPE = 0
CLASSIFICATION_TYPE = U
NORAD_CAT_ID   = 66551
ELEMENT_SET_NO = 999
REV_AT_EPOCH   = 262
BSTAR          = -.74303E-2
MEAN_MOTION_DOT = -.1709685E-1
MEAN_MOTION_DDOT = 0

CCSDS_OMM_VERS = 2.0
CREATION_DATE  = 
ORIGINATOR     = 

OBJECT_NAME    = GLOBAL-33
OBJECT_ID      = 2025-267A
CENTER_NAME    = EARTH
REF_FRAME      = TEME
TIME_SYSTEM    = UTC
MEAN_ELEMENT_THEORY = SGP/SGP4

EPOCH          = 2025-12-11T14:53:12.552288
MEAN_MOTION    = 15.31613043
ECCENTRICITY   = .00043712
INCLINATION    = 42.0212
RA_OF_ASC_NODE = 63.4559
ARG_OF_PERICENTER = 46.3547
MEAN_ANOMALY   = 313.7652

EPHEMERIS_TYPE = 0
CLASSIFICATION_TYPE = U
NORAD_CAT_ID   = 66554
ELEMENT_SET_NO = 999
REV_AT_EPOCH   = 323
BSTAR          = .61477883E-3
MEAN_MOTION_DOT = .18974E-3
MEAN_MOTION_DDOT = 0

CCSDS_OMM_VERS = 2.0
CREATION_DATE  = 
ORIGINATOR     = 

OBJECT_NAME    = ELECTRON KICK STAGE R/B
OBJECT_ID      = 2025-267B
CENTER_NAME    = EARTH
REF_FRAME      = TEME
TIME_SYSTEM    = UTC
MEAN_ELEMENT_THEORY = SGP/SGP4

EPOCH          = 2025-12-11T14:37:24.915360
MEAN_MOTION    = 15.32723055
ECCENTRICITY   = .00065972
INCLINATION    = 42.0196
RA_OF_ASC_NODE = 63.3722
ARG_OF_PERICENTER = 43.8355
MEAN_ANOMALY   = 316.3006

EPHEMERIS_TYPE = 0
CLASSIFICATION_TYPE = U
NORAD_CAT_ID   = 66555
ELEMENT_SET_NO = 999
REV_AT_EPOCH   = 323
BSTAR          = .11433379E-2
MEAN_MOTION_DOT = .36872E-3
MEAN_MOTION_DDOT = 0

CCSDS_OMM_VERS = 2.0
CREATION_DATE  = 
ORIGINATOR     = 

OBJECT_NAME    = STARLINK-35699
OBJECT_ID      = 2025-268A
CENTER_NAME    = EARTH
REF_FRAME      = TEME
TIME_SYSTEM    = UTC
MEAN_ELEMENT_THEORY = SGP/SGP4

EPOCH          = 2025-12-12T04:00:01.998720
MEAN_MOTION    = 15.50525112
ECCENTRICITY   = .0001615
INCLINATION    = 43.0002
RA_OF_ASC_NODE = 124.5489
ARG_OF_PERICENTER = 265.0873
MEAN_ANOMALY   = 231.0433

EPHEMERIS_TYPE = 0
CLASSIFICATION_TYPE = U
NORAD_CAT_ID   = 66557
ELEMENT_SET_NO = 999
REV_AT_EPOCH   = 457
BSTAR          = -.3253E-3
MEAN_MOTION_DOT = -.19342E-3
MEAN_MOTION_DDOT = 0

CCSDS_OMM_VERS = 2.0
CREATION_DATE  = 
ORIGINATOR     = 

OBJECT_NAME    = STARLINK-35695
OBJECT_ID      = 2025-268B
CENTER_NAME    = EARTH
REF_FRAME      = TEME
TIME_SYSTEM    = UTC
MEAN_ELEMENT_THEORY = SGP/SGP4

EPOCH          = 2025-12-12T04:00:01.998720
MEAN_MOTION    = 15.50631551
ECCENTRICITY   = .0003463
INCLINATION    = 43.0003
RA_OF_ASC_NODE = 124.5456
ARG_OF_PERICENTER = 266.7143
MEAN_ANOMALY   = 231.1861

EPHEMERIS_TYPE = 0
CLASSIFICATION_TYPE = U
NORAD_CAT_ID   = 66558
ELEMENT_SET_NO = 999
REV_AT_EPOCH   = 457
BSTAR          = -.18423E-2
MEAN_MOTION_DOT = -.107183E-2
MEAN_MOTION_DDOT = 0

CCSDS_OMM_VERS = 2.0
CREATION_DATE  = 
ORIGINATOR     = 

OBJECT_NAME    = STARLINK-35419
OBJECT_ID      = 2025-268C
CENTER_NAME    = EARTH
REF_FRAME      = TEME
TIME_SYSTEM    = UTC
MEAN_ELEMENT_THEORY = SGP/SGP4

EPOCH          = 2025-12-12T04:00:01.998720
MEAN_MOTION    = 15.50437102
ECCENTRICITY   = .0002732
INCLINATION    = 43.0002
RA_OF_ASC_NODE = 124.5409
ARG_OF_PERICENTER = 246.0356
MEAN_ANOMALY   = 253.8495

EPHEMERIS_TYPE = 0
CLASSIFICATION_TYPE = U
NORAD_CAT_ID   = 66559
ELEMENT_SET_NO = 999
REV_AT_EPOCH   = 457
BSTAR          = .17818E-2
MEAN_MOTION_DOT = .105075E-2
MEAN_MOTION_DDOT = 0

CCSDS_OMM_VERS = 2.0
CREATION_DATE  = 
ORIGINATOR     = 

OBJECT_NAME    = STARLINK-35411
OBJECT_ID      = 2025-268D
CENTER_NAME    = EARTH
REF_FRAME      = TEME
TIME_SYSTEM    = UTC
MEAN_ELEMENT_THEORY = SGP/SGP4

EPOCH          = 2025-12-12T04:00:01.998720
MEAN_MOTION    = 15.50585828
ECCENTRICITY   = .0002092
INCLINATION    = 43.0002
RA_OF_ASC_NODE = 124.5367
ARG_OF_PERICENTER = 269.9251
MEAN_ANOMALY   = 231.7379

EPHEMERIS_TYPE = 0
CLASSIFICATION_TYPE = U
NORAD_CAT_ID   = 66560
ELEMENT_SET_NO = 999
REV_AT_EPOCH   = 457
BSTAR          = .12033E-3
MEAN_MOTION_DOT = .6725E-4
MEAN_MOTION_DDOT = 0

CCSDS_OMM_VERS = 2.0
CREATION_DATE  = 
ORIGINATOR     = 

OBJECT_NAME    = STARLINK-35305
OBJECT_ID      = 2025-268E
CENTER_NAME    = EARTH
REF_FRAME      = TEME
TIME_SYSTEM    = UTC
MEAN_ELEMENT_THEORY = SGP/SGP4

EPOCH          = 2025-12-12T04:00:01.998720
MEAN_MOTION    = 15.50498322
ECCENTRICITY   = .0001505
INCLINATION    = 43.0001
RA_OF_ASC_NODE = 124.5267
ARG_OF_PERICENTER = 266.4236
MEAN_ANOMALY   = 239.1889

EPHEMERIS_TYPE = 0
CLASSIFICATION_TYPE = U
NORAD_CAT_ID   = 66561
ELEMENT_SET_NO = 999
REV_AT_EPOCH   = 452
BSTAR          = .16373E-2
MEAN_MOTION_DOT = .96625E-3
MEAN_MOTION_DDOT = 0

CCSDS_OMM_VERS = 2.0
CREATION_DATE  = 
ORIGINATOR     = 

OBJECT_NAME    = STARLINK-35579
OBJECT_ID      = 2025-268F
CENTER_NAME    = EARTH
REF_FRAME      = TEME
TIME_SYSTEM    = UTC
MEAN_ELEMENT_THEORY = SGP/SGP4

EPOCH          = 2025-12-12T04:00:01.998720
MEAN_MOTION    = 15.50544822
ECCENTRICITY   = .000162
INCLINATION    = 43.0002
RA_OF_ASC_NODE = 124.5308
ARG_OF_PERICENTER = 269.8375
MEAN_ANOMALY   = 233.8386

EPHEMERIS_TYPE = 0
CLASSIFICATION_TYPE = U
NORAD_CAT_ID   = 66562
ELEMENT_SET_NO = 999
REV_AT_EPOCH   = 457
BSTAR          = .32676E-3
MEAN_MOTION_DOT = .18851E-3
MEAN_MOTION_DDOT = 0

CCSDS_OMM_VERS = 2.0
CREATION_DATE  = 
ORIGINATOR     = 

OBJECT_NAME    = STARLINK-35437
OBJECT_ID      = 2025-268G
CENTER_NAME    = EARTH
REF_FRAME      = TEME
TIME_SYSTEM    = UTC
MEAN_ELEMENT_THEORY = SGP/SGP4

EPOCH          = 2025-12-12T04:00:01.998720
MEAN_MOTION    = 15.50517838
ECCENTRICITY   = .0001655
INCLINATION    = 43.0002
RA_OF_ASC_NODE = 124.5210
ARG_OF_PERICENTER = 268.8268
MEAN_ANOMALY   = 238.6916

EPHEMERIS_TYPE = 0
CLASSIFICATION_TYPE = U
NORAD_CAT_ID   = 66563
ELEMENT_SET_NO = 999
REV_AT_EPOCH   = 457
BSTAR          = .11594E-2
MEAN_MOTION_DOT = .68121E-3
MEAN_MOTION_DDOT = 0

CCSDS_OMM_VERS = 2.0
CREATION_DATE  = 
ORIGINATOR     = 

OBJECT_NAME    = STARLINK-35358
OBJECT_ID      = 2025-268H
CENTER_NAME    = EARTH
REF_FRAME      = TEME
TIME_SYSTEM    = UTC
MEAN_ELEMENT_THEORY = SGP/SGP4

EPOCH          = 2025-12-12T04:00:01.998720
MEAN_MOTION    = 15.50580998
ECCENTRICITY   = .0001518
INCLINATION    = 43.0001
RA_OF_ASC_NODE = 124.5171
ARG_OF_PERICENTER = 267.2614
MEAN_ANOMALY   = 242.1619

EPHEMERIS_TYPE = 0
CLASSIFICATION_TYPE = U
NORAD_CAT_ID   = 66564
ELEMENT_SET_NO = 999
REV_AT_EPOCH   = 452
BSTAR          = -.54078E-3
MEAN_MOTION_DOT = -.31939E-3
MEAN_MOTION_DDOT = 0

CCSDS_OMM_VERS = 2.0
CREATION_DATE  = 
ORIGINATOR     = 

OBJECT_NAME    = STARLINK-35893
OBJECT_ID      = 2025-268J
CENTER_NAME    = EARTH
REF_FRAME      = TEME
TIME_SYSTEM    = UTC
MEAN_ELEMENT_THEORY = SGP/SGP4

EPOCH          = 2025-12-12T04:00:01.998720
MEAN_MOTION    = 15.50549543
ECCENTRICITY   = .0001624
INCLINATION    = 43.0002
RA_OF_ASC_NODE = 124.5118
ARG_OF_PERICENTER = 267.2937
MEAN_ANOMALY   = 244.0560

EPHEMERIS_TYPE = 0
CLASSIFICATION_TYPE = U
NORAD_CAT_ID   = 66565
ELEMENT_SET_NO = 999
REV_AT_EPOCH   = 457
BSTAR          = .29279E-3
MEAN_MOTION_DOT = .16854E-3
MEAN_MOTION_DDOT = 0

